CCSDS_OMM_VERS = 2.0
CREATION_DATE  = 
ORIGINATOR     = 

OBJECT_NAME    = OKEAN-3
OBJECT_ID      = 1991-039A
CENTER_NAME    = EARTH
REF_FRAME      = TEME
TIME_SYSTEM    = UTC
MEAN_ELEMENT_THEORY = SGP/SGP4

EPOCH          = 2025-11-04T11:47:43.446048
MEAN_MOTION    = 15.03719246
ECCENTRICITY   = .00155181
INCLINATION    = 82.5140
RA_OF_ASC_NODE = 98.0556
ARG_OF_PERICENTER = 40.3866
MEAN_ANOMALY   = 319.8509

EPHEMERIS_TYPE = 0
CLASSIFICATION_TYPE = U
NORAD_CAT_ID   = 21397
ELEMENT_SET_NO = 999
REV_AT_EPOCH   = 84621
BSTAR          = .31251028E-3
MEAN_MOTION_DOT = .4322E-4
MEAN_MOTION_DDOT = 0

CCSDS_OMM_VERS = 2.0
CREATION_DATE  = 
ORIGINATOR     = 

OBJECT_NAME    = COSMOS 2151
OBJECT_ID      = 1991-042A
CENTER_NAME    = EARTH
REF_FRAME      = TEME
TIME_SYSTEM    = UTC
MEAN_ELEMENT_THEORY = SGP/SGP4

EPOCH          = 2025-11-04T15:44:08.953152
MEAN_MOTION    = 14.99474892
ECCENTRICITY   = .00139315
INCLINATION    = 82.4994
RA_OF_ASC_NODE = 204.1921
ARG_OF_PERICENTER = 117.1265
MEAN_ANOMALY   = 243.1382

EPHEMERIS_TYPE = 0
CLASSIFICATION_TYPE = U
NORAD_CAT_ID   = 21422
ELEMENT_SET_NO = 999
REV_AT_EPOCH   = 84445
BSTAR          = .20199152E-3
MEAN_MOTION_DOT = .2508E-4
MEAN_MOTION_DDOT = 0

CCSDS_OMM_VERS = 2.0
CREATION_DATE  = 
ORIGINATOR     = 

OBJECT_NAME    = SL-14 R/B
OBJECT_ID      = 1991-042B
CENTER_NAME    = EARTH
REF_FRAME      = TEME
TIME_SYSTEM    = UTC
MEAN_ELEMENT_THEORY = SGP/SGP4

EPOCH          = 2025-11-04T11:48:16.152768
MEAN_MOTION    = 14.81686038
ECCENTRICITY   = .00155842
INCLINATION    = 82.4929
RA_OF_ASC_NODE = 337.5945
ARG_OF_PERICENTER = 294.8366
MEAN_ANOMALY   = 65.1227

EPHEMERIS_TYPE = 0
CLASSIFICATION_TYPE = U
NORAD_CAT_ID   = 21423
ELEMENT_SET_NO = 999
REV_AT_EPOCH   = 83453
BSTAR          = .56803715E-4
MEAN_MOTION_DOT = .471E-5
MEAN_MOTION_DDOT = 0

CCSDS_OMM_VERS = 2.0
CREATION_DATE  = 
ORIGINATOR     = 

OBJECT_NAME    = ERS-1
OBJECT_ID      = 1991-050A
CENTER_NAME    = EARTH
REF_FRAME      = TEME
TIME_SYSTEM    = UTC
MEAN_ELEMENT_THEORY = SGP/SGP4

EPOCH          = 2025-11-04T12:04:23.109600
MEAN_MOTION    = 14.39318971
ECCENTRICITY   = .00314238
INCLINATION    = 98.7929
RA_OF_ASC_NODE = 318.5971
ARG_OF_PERICENTER = 212.0514
MEAN_ANOMALY   = 147.8763

EPHEMERIS_TYPE = 0
CLASSIFICATION_TYPE = U
NORAD_CAT_ID   = 21574
ELEMENT_SET_NO = 999
REV_AT_EPOCH   = 79772
BSTAR          = .12948881E-3
MEAN_MOTION_DOT = .358E-5
MEAN_MOTION_DDOT = 0

CCSDS_OMM_VERS = 2.0
CREATION_DATE  = 
ORIGINATOR     = 

OBJECT_NAME    = ARIANE 40 R/B
OBJECT_ID      = 1991-050F
CENTER_NAME    = EARTH
REF_FRAME      = TEME
TIME_SYSTEM    = UTC
MEAN_ELEMENT_THEORY = SGP/SGP4

EPOCH          = 2025-11-04T13:46:57.984672
MEAN_MOTION    = 14.42762442
ECCENTRICITY   = .00044105
INCLINATION    = 98.2223
RA_OF_ASC_NODE = 0.3723
ARG_OF_PERICENTER = 94.5136
MEAN_ANOMALY   = 265.6558

EPHEMERIS_TYPE = 0
CLASSIFICATION_TYPE = U
NORAD_CAT_ID   = 21610
ELEMENT_SET_NO = 999
REV_AT_EPOCH   = 80095
BSTAR          = .13323533E-3
MEAN_MOTION_DOT = .402E-5
MEAN_MOTION_DDOT = 0

CCSDS_OMM_VERS = 2.0
CREATION_DATE  = 
ORIGINATOR     = 

OBJECT_NAME    = INTERCOSMOS 25
OBJECT_ID      = 1991-086A
CENTER_NAME    = EARTH
REF_FRAME      = TEME
TIME_SYSTEM    = UTC
MEAN_ELEMENT_THEORY = SGP/SGP4

EPOCH          = 2025-11-04T07:49:13.738080
MEAN_MOTION    = 12.11562456
ECCENTRICITY   = .14887549
INCLINATION    = 82.6096
RA_OF_ASC_NODE = 25.7911
ARG_OF_PERICENTER = 27.1840
MEAN_ANOMALY   = 339.9784

EPHEMERIS_TYPE = 0
CLASSIFICATION_TYPE = U
NORAD_CAT_ID   = 21819
ELEMENT_SET_NO = 999
REV_AT_EPOCH   = 48150
BSTAR          = .28083435E-3
MEAN_MOTION_DOT = .1453E-4
MEAN_MOTION_DDOT = 0

CCSDS_OMM_VERS = 2.0
CREATION_DATE  = 
ORIGINATOR     = 

OBJECT_NAME    = SL-8 R/B
OBJECT_ID      = 1992-008B
CENTER_NAME    = EARTH
REF_FRAME      = TEME
TIME_SYSTEM    = UTC
MEAN_ELEMENT_THEORY = SGP/SGP4

EPOCH          = 2025-11-04T14:14:31.349760
MEAN_MOTION    = 13.75947343
ECCENTRICITY   = .00359629
INCLINATION    = 82.9295
RA_OF_ASC_NODE = 0.8188
ARG_OF_PERICENTER = 123.0488
MEAN_ANOMALY   = 28.4999

EPHEMERIS_TYPE = 0
CLASSIFICATION_TYPE = U
NORAD_CAT_ID   = 21876
ELEMENT_SET_NO = 999
REV_AT_EPOCH   = 69221
BSTAR          = .10710087E-3
MEAN_MOTION_DOT = .12E-5
MEAN_MOTION_DDOT = 0

CCSDS_OMM_VERS = 2.0
CREATION_DATE  = 
ORIGINATOR     = 

OBJECT_NAME    = SL-8 R/B
OBJECT_ID      = 1992-020B
CENTER_NAME    = EARTH
REF_FRAME      = TEME
TIME_SYSTEM    = UTC
MEAN_ELEMENT_THEORY = SGP/SGP4

EPOCH          = 2025-11-04T08:58:10.706592
MEAN_MOTION    = 13.75520126
ECCENTRICITY   = .00276971
INCLINATION    = 82.9299
RA_OF_ASC_NODE = 246.8054
ARG_OF_PERICENTER = 289.0533
MEAN_ANOMALY   = 194.0598

EPHEMERIS_TYPE = 0
CLASSIFICATION_TYPE = U
NORAD_CAT_ID   = 21938
ELEMENT_SET_NO = 999
REV_AT_EPOCH   = 68390
BSTAR          = .32515733E-4
MEAN_MOTION_DOT = .46E-6
MEAN_MOTION_DDOT = 0

CCSDS_OMM_VERS = 2.0
CREATION_DATE  = 
ORIGINATOR     = 

OBJECT_NAME    = USA 81
OBJECT_ID      = 1992-023A
CENTER_NAME    = EARTH
REF_FRAME      = TEME
TIME_SYSTEM    = UTC
MEAN_ELEMENT_THEORY = SGP/SGP4

EPOCH          = 2025-11-04T11:18:31.388832
MEAN_MOTION    = 14.32305352
ECCENTRICITY   = .00027847
INCLINATION    = 85.0116
RA_OF_ASC_NODE = 203.6399
ARG_OF_PERICENTER = 83.4216
MEAN_ANOMALY   = 276.7293

EPHEMERIS_TYPE = 0
CLASSIFICATION_TYPE = U
NORAD_CAT_ID   = 21949
ELEMENT_SET_NO = 999
REV_AT_EPOCH   = 7686
BSTAR          = .78245528E-4
MEAN_MOTION_DOT = .231E-5
MEAN_MOTION_DDOT = 0

CCSDS_OMM_VERS = 2.0
CREATION_DATE  = 
ORIGINATOR     = 

OBJECT_NAME    = COSMOS 2219
OBJECT_ID      = 1992-076A
CENTER_NAME    = EARTH
REF_FRAME      = TEME
TIME_SYSTEM    = UTC
MEAN_ELEMENT_THEORY = SGP/SGP4

EPOCH          = 2025-11-04T09:12:52.697664
MEAN_MOTION    = 14.14060715
ECCENTRICITY   = .00171281
INCLINATION    = 71.0598
RA_OF_ASC_NODE = 280.0083
ARG_OF_PERICENTER = 25.1946
MEAN_ANOMALY   = 335.0008

EPHEMERIS_TYPE = 0
CLASSIFICATION_TYPE = U
NORAD_CAT_ID   = 22219
ELEMENT_SET_NO = 999
REV_AT_EPOCH   = 70066
BSTAR          = .19940905E-3
MEAN_MOTION_DOT = .333E-5
MEAN_MOTION_DDOT = 0

CCSDS_OMM_VERS = 2.0
CREATION_DATE  = 
ORIGINATOR     = 

OBJECT_NAME    = SL-16 R/B
OBJECT_ID      = 1992-076B
CENTER_NAME    = EARTH
REF_FRAME      = TEME
TIME_SYSTEM    = UTC
MEAN_ELEMENT_THEORY = SGP/SGP4

EPOCH          = 2025-11-04T15:41:04.369920
MEAN_MOTION    = 14.16831822
ECCENTRICITY   = .00150065
INCLINATION    = 70.9985
RA_OF_ASC_NODE = 91.7558
ARG_OF_PERICENTER = 283.4738
MEAN_ANOMALY   = 87.5824

EPHEMERIS_TYPE = 0
CLASSIFICATION_TYPE = U
NORAD_CAT_ID   = 22220
ELEMENT_SET_NO = 999
REV_AT_EPOCH   = 70412
BSTAR          = .16589906E-3
MEAN_MOTION_DOT = .285E-5
MEAN_MOTION_DDOT = 0

CCSDS_OMM_VERS = 2.0
CREATION_DATE  = 
ORIGINATOR     = 

OBJECT_NAME    = COSMOS 2221
OBJECT_ID      = 1992-080A
CENTER_NAME    = EARTH
REF_FRAME      = TEME
TIME_SYSTEM    = UTC
MEAN_ELEMENT_THEORY = SGP/SGP4

EPOCH          = 2025-11-04T13:11:37.519584
MEAN_MOTION    = 14.95528314
ECCENTRICITY   = .00132514
INCLINATION    = 82.5071
RA_OF_ASC_NODE = 38.8652
ARG_OF_PERICENTER = 250.8114
MEAN_ANOMALY   = 109.1674

EPHEMERIS_TYPE = 0
CLASSIFICATION_TYPE = U
NORAD_CAT_ID   = 22236
ELEMENT_SET_NO = 999
REV_AT_EPOCH   = 76208
BSTAR          = .21583195E-3
MEAN_MOTION_DOT = .242E-4
MEAN_MOTION_DDOT = 0

