OKEAN-3                 
1 21397U 91039A   25308.49147507  .00004322  00000+0  31251-3 0  9994
2 21397  82.5140  98.0556 0015518  40.3866 319.8509 15.03719246846218
COSMOS 2151             
1 21422U 91042A   25308.65565918  .00002508  00000+0  20199-3 0  9998
2 21422  82.4994 204.1921 0013931 117.1265 243.1382 14.99474892844453
SL-14 R/B               
1 21423U 91042B   25308.49185362  .00000471  00000+0  56804-4 0  9992
2 21423  82.4929 337.5945 0015584 294.8366  65.1227 14.81686038834536
ERS-1                   
1 21574U 91050A   25308.50304525  .00000358  00000+0  12949-3 0  9999
2 21574  98.7929 318.5971 0031423 212.0514 147.8763 14.39318971797721
ARIANE 40 R/B           
1 21610U 91050F   25308.57428223  .00000402  00000+0  13324-3 0  9997
2 21610  98.2223   0.3723 0004410  94.5136 265.6558 14.42762442800955
INTERCOSMOS 25          
1 21819U 91086A   25308.32585345  .00001453  00000+0  28083-3 0  9994
2 21819  82.6096  25.7911 1488754  27.1840 339.9784 12.11562456481502
SL-8 R/B                
1 21876U 92008B   25308.59341840  .00000120  00000+0  10710-3 0  9999
2 21876  82.9295   0.8188 0035962 123.0488  28.4999 13.75947343692214
SL-8 R/B                
1 21938U 92020B   25308.37373503  .00000046  00000+0  32516-4 0  9995
2 21938  82.9299 246.8054 0027697 289.0533 194.0598 13.75520126683908
USA 81                  
1 21949U 92023A   25308.47119663  .00000231  00000+0  78246-4 0  9992
2 21949  85.0116 203.6399 0002784  83.4216 276.7293 14.32305352 76866
COSMOS 2219             
1 22219U 92076A   25308.38394326  .00000333  00000+0  19941-3 0  9991
2 22219  71.0598 280.0083 0017128  25.1946 335.0008 14.14060715700662
SL-16 R/B               
1 22220U 92076B   25308.65352280  .00000285  00000+0  16590-3 0  9999
2 22220  70.9985  91.7558 0015006 283.4738  87.5824 14.16831822704124
COSMOS 2221             
1 22236U 92080A   25308.54973981  .00002420  00000+0  21583-3 0  9997
2 22236  82.5071  38.8652 0013251 250.8114 109.1674 14.95528314762088
